{
  "previous_tles": {
    "32382": {
      "line1": "1 32382U 07061A   26187.27980218  .00000330  00000+0  14473-3 0  9990",
      "line2": "2 32382  98.5780 193.9397 0001314  84.4267 275.7065 14.29982596968682"
    }