{"fetched_at":"2026-07-06T18:35:49.523Z","source":"https://celestrak.org/NORAD/elements/gp.php?NAME=RADARSAT&FORMAT=JSON","constellation":"radarsat-2","records":[{"OBJECT_NAME":"RADARSAT-2","OBJECT_ID":"2007-061A","EPOCH":"2026-07-06T06:42:54.908352","CLASSIFICATION_TYPE":"U","MEAN_MOTION":14.29982596,"ECCENTRICITY":0.0001314,"INCLINATION":98.578,"RA_OF_ASC_NODE":193.9397,"ARG_OF_PERICENTER":84.4267,"MEAN_ANOMALY":275.7065,"EPHEMERIS_TYPE":0,"NORAD_CAT_ID":32382,"ELEMENT_SET_NO":999,"REV_AT_EPOCH":96868,"BSTAR":0.00014473314,"MEAN_MOTION_DOT":0.0000033,"MEAN_MOTION_DDOT":0}]}
